{
  "type": "FeatureCollection",
  "features": [
    {
      "type": "Feature",
      "properties": {
        "norad_id": 66410,
        "name": "CHUTIAN-2 B",
        "group": "last-30-days",
        "lat": -58.92968546983038,
        "lon": -148.59718071814163,
        "alt_km": 722.0783076072594,
        "timestamp": "2025-12-06T11:28:09.784439+00:00",
        "meta_object_name": "CHUTIAN-2 B",
        "meta_object_id": "2025-256B",
        "meta_epoch": "2025-12-05T22:46:56.663616",
        "meta_mean_motion": 14.51011827,
        "meta_eccentricity": 0.00134187,
        "meta_inclination": 98.2803,
        "meta_ra_of_asc_node": 44.8691,
        "meta_arg_of_pericenter": 202.1367,
        "meta_mean_anomaly": 157.925,
        "meta_ephemeris_type": 0,
        "meta_classification_type": "U",
        "meta_norad_cat_id": 66410,
        "meta_element_set_no": 999,
        "meta_rev_at_epoch": 389,
        "meta_bstar": 0.00031904173,
        "meta_mean_motion_dot": 1.219e-05,
        "meta_mean_motion_ddot": 0,
        "tle_line1": "1 66410U 25256B   25339.94926694  .00001219  00000+0  31904-3 0  9990",
        "tle_line2": "2 66410  98.2803  44.8691 0013418 202.1367 157.9250 14.51011827  3898"
      },
      "geometry": {
        "type": "Point",
        "coordinates": [
          -148.59718071814163,
          -58.92968546983038
        ]
      }
    },
    {
      "type": "Feature",
      "properties": {
        "norad_id": 66411,
        "name": "ZK-1A R/B",
        "group": "last-30-days",
        "lat": 40.89128554395705,
        "lon": -124.9098324096491,
        "alt_km": 652.5223973964794,
        "timestamp": "2025-12-06T11:28:09.784453+00:00",
        "meta_object_name": "ZK-1A R/B",
        "meta_object_id": "2025-256C",
        "meta_epoch": "2025-12-05T22:02:26.643552",
        "meta_mean_motion": 15.0173273,
        "meta_eccentricity": 0.0229073,
        "meta_inclination": 98.3241,
        "meta_ra_of_asc_node": 47.2057,
        "meta_arg_of_pericenter": 267.7675,
        "meta_mean_anomaly": 89.7304,
        "meta_ephemeris_type": 0,
        "meta_classification_type": "U",
        "meta_norad_cat_id": 66411,
        "meta_element_set_no": 999,
        "meta_rev_at_epoch": 402,
        "meta_bstar": 0.00090013002,
        "meta_mean_motion_dot": 0.00020707,
        "meta_mean_motion_ddot": 0,
        "tle_line1": "1 66411U 25256C   25339.91836393  .00020707  00000+0  90013-3 0  9993",
        "tle_line2": "2 66411  98.3241  47.2057 0229073 267.7675  89.7304 15.01732730  4021"
      },
      "geometry": {
        "type": "Point",
        "coordinates": [
          -124.9098324096491,
          40.89128554395705
        ]
      }
    },
    {
      "type": "Feature",
      "properties": {
        "norad_id": 66412,
        "name": "HULIANWANG DIGUI 13A",
        "group": "last-30-days",
        "lat": 49.768697831808105,
        "lon": 11.21614151685477,
        "alt_km": 813.1797590529904,
        "timestamp": "2025-12-06T11:28:09.784464+00:00",
        "meta_object_name": "HULIANWANG DIGUI 13A",
        "meta_object_id": "2025-258A",
        "meta_epoch": "2025-12-05T21:34:54.424128",
        "meta_mean_motion": 14.22483467,
        "meta_eccentricity": 0.0013174,
        "meta_inclination": 50.0056,
        "meta_ra_of_asc_node": 290.773,
        "meta_arg_of_pericenter": 333.7456,
        "meta_mean_anomaly": 26.2788,
        "meta_ephemeris_type": 0,
        "meta_classification_type": "U",
        "meta_norad_cat_id": 66412,
        "meta_element_set_no": 999,
        "meta_rev_at_epoch": 368,
        "meta_bstar": 0.00033228063,
        "meta_mean_motion_dot": 5.88e-06,
        "meta_mean_motion_ddot": 0,
        "tle_line1": "1 66412U 25258A   25339.89924102  .00000588  00000+0  33228-3 0  9999",
        "tle_line2": "2 66412  50.0056 290.7730 0013174 333.7456  26.2788 14.22483467  3683"
      },
      "geometry": {
        "type": "Point",
        "coordinates": [
          11.21614151685477,
          49.768697831808105
        ]
      }
    },
    {
      "type": "Feature",
      "properties": {
        "norad_id": 66413,
        "name": "HULIANWANG DIGUI 13B",
        "group": "last-30-days",
        "lat": 32.0004304344517,
        "lon": -39.95016044883187,
        "alt_km": 809.7832773648788,
        "timestamp": "2025-12-06T11:28:09.784475+00:00",
        "meta_object_name": "HULIANWANG DIGUI 13B",
        "meta_object_id": "2025-258B",
        "meta_epoch": "2025-12-05T09:58:14.098080",
        "meta_mean_motion": 14.22286108,
        "meta_eccentricity": 0.00131872,
        "meta_inclination": 50.0013,
        "meta_ra_of_asc_node": 292.8683,
        "meta_arg_of_pericenter": 332.0634,
        "meta_mean_anomaly": 27.9569,
        "meta_ephemeris_type": 0,
        "meta_classification_type": "U",
        "meta_norad_cat_id": 66413,
        "meta_element_set_no": 999,
        "meta_rev_at_epoch": 361,
        "meta_bstar": 0.0003474057,
        "meta_mean_motion_dot": 6.19e-06,
        "meta_mean_motion_ddot": 0,
        "tle_line1": "1 66413U 25258B   25339.41544095  .00000619  00000+0  34741-3 0  9993",
        "tle_line2": "2 66413  50.0013 292.8683 0013187 332.0634  27.9569 14.22286108  3612"
      },
      "geometry": {
        "type": "Point",
        "coordinates": [
          -39.95016044883187,
          32.0004304344517
        ]
      }
    },
    {
      "type": "Feature",
      "properties": {
        "norad_id": 66414,
        "name": "HULIANWANG DIGUI 13C",
        "group": "last-30-days",
        "lat": 42.030897016877084,
        "lon": -22.436269238404932,
        "alt_km": 810.5961173316,
        "timestamp": "2025-12-06T11:28:09.784485+00:00",
        "meta_object_name": "HULIANWANG DIGUI 13C",
        "meta_object_id": "2025-258C",
        "meta_epoch": "2025-12-05T09:53:35.287008",
        "meta_mean_motion": 14.2244177,
        "meta_eccentricity": 0.00137409,
        "meta_inclination": 50.0052,
        "meta_ra_of_asc_node": 292.8676,
        "meta_arg_of_pericenter": 331.0235,
        "meta_mean_anomaly": 28.9914,
        "meta_ephemeris_type": 0,
        "meta_classification_type": "U",
        "meta_norad_cat_id": 66414,
        "meta_element_set_no": 999,
        "meta_rev_at_epoch": 361,
        "meta_bstar": 0.00035499636,
        "meta_mean_motion_dot": 6.38e-06,
        "meta_mean_motion_ddot": 0,
        "tle_line1": "1 66414U 25258C   25339.41221397  .00000638  00000+0  35500-3 0  9996",
        "tle_line2": "2 66414  50.0052 292.8676 0013740 331.0235  28.9914 14.22441770  3612"
      },
      "geometry": {
        "type": "Point",
        "coordinates": [
          -22.436269238404932,
          42.030897016877084
        ]
      }
    },
    {
      "type": "Feature",
      "properties": {
        "norad_id": 66415,
        "name": "HULIANWANG DIGUI 13D",
        "group": "last-30-days",
        "lat": 49.76862482901218,
        "lon": 25.440619454449852,
        "alt_km": 811.8971528518096,
        "timestamp": "2025-12-06T11:28:09.784495+00:00",
        "meta_object_name": "HULIANWANG DIGUI 13D",
        "meta_object_id": "2025-258D",
        "meta_epoch": "2025-12-05T19:51:31.787136",
        "meta_mean_motion": 14.23026723,
        "meta_eccentricity": 0.00136315,
        "meta_inclination": 50.0049,
        "meta_ra_of_asc_node": 291.0607,
        "meta_arg_of_pericenter": 339.9094,
        "meta_mean_anomaly": 20.1281,
        "meta_ephemeris_type": 0,
        "meta_classification_type": "U",
        "meta_norad_cat_id": 66415,
        "meta_element_set_no": 999,
        "meta_rev_at_epoch": 367,
        "meta_bstar": 0.00032301441,
        "meta_mean_motion_dot": 5.74e-06,
        "meta_mean_motion_ddot": 0,
        "tle_line1": "1 66415U 25258D   25339.82745124  .00000574  00000+0  32301-3 0  9996",
        "tle_line2": "2 66415  50.0049 291.0607 0013631 339.9094  20.1281 14.23026723  3678"
      },
      "geometry": {
        "type": "Point",
        "coordinates": [
          25.440619454449852,
          49.76862482901218
        ]
      }
    },
    {
      "type": "Feature",
      "properties": {
        "norad_id": 66416,
        "name": "HULIANWANG DIGUI 13E",
        "group": "last-30-days",
        "lat": 45.68926610616503,
        "lon": -12.322852581034496,
        "alt_km": 811.0488331792203,
        "timestamp": "2025-12-06T11:28:09.784505+00:00",
        "meta_object_name": "HULIANWANG DIGUI 13E",
        "meta_object_id": "2025-258E",
        "meta_epoch": "2025-12-05T21:39:19.515744",
        "meta_mean_motion": 14.22215324,
        "meta_eccentricity": 0.00111953,
        "meta_inclination": 50.0052,
        "meta_ra_of_asc_node": 290.7863,
        "meta_arg_of_pericenter": 340.1554,
        "meta_mean_anomaly": 19.8921,
        "meta_ephemeris_type": 0,
        "meta_classification_type": "U",
        "meta_norad_cat_id": 66416,
        "meta_element_set_no": 999,
        "meta_rev_at_epoch": 368,
        "meta_bstar": 0.00039075783,
        "meta_mean_motion_dot": 7.14e-06,
        "meta_mean_motion_ddot": 0,
        "tle_line1": "1 66416U 25258E   25339.90230921  .00000714  00000+0  39076-3 0  9992",
        "tle_line2": "2 66416  50.0052 290.7863 0011195 340.1554  19.8921 14.22215324  3684"
      },
      "geometry": {
        "type": "Point",
        "coordinates": [
          -12.322852581034496,
          45.68926610616503
        ]
      }
    }
  ]
}